<?xml version="1.0" encoding="UTF-8"?>
<ndm xmlns:xsi="http://www.w3.org/2001/XMLSchema-instance" xsi:noNamespaceSchemaLocation="https://sanaregistry.org/r/ndmxml_unqualified/ndmxml-2.0.0-master-2.0.xsd">
<omm id="CCSDS_OMM_VERS" version="2.0">
<header><CREATION_DATE/><ORIGINATOR/></header><body><segment><metadata><OBJECT_NAME>KUIPER-00039</OBJECT_NAME><OBJECT_ID>2025-134A</OBJECT_ID><CENTER_NAME>EARTH</CENTER_NAME><REF_FRAME>TEME</REF_FRAME><TIME_SYSTEM>UTC</TIME_SYSTEM><MEAN_ELEMENT_THEORY>SGP4</MEAN_ELEMENT_THEORY></metadata><data><meanElements><EPOCH>2025-12-29T19:18:16.907040</EPOCH><MEAN_MOTION>14.79934071</MEAN_MOTION><ECCENTRICITY>.0011596</ECCENTRICITY><INCLINATION>51.8996</INCLINATION><RA_OF_ASC_NODE>182.1150</RA_OF_ASC_NODE><ARG_OF_PERICENTER>59.9285</ARG_OF_PERICENTER><MEAN_ANOMALY>300.2826</MEAN_ANOMALY></meanElements><tleParameters><EPHEMERIS_TYPE>0</EPHEMERIS_TYPE><CLASSIFICATION_TYPE>U</CLASSIFICATION_TYPE><NORAD_CAT_ID>64500</NORAD_CAT_ID><ELEMENT_SET_NO>999</ELEMENT_SET_NO><REV_AT_EPOCH>2972</REV_AT_EPOCH><BSTAR>.59598E-3</BSTAR><MEAN_MOTION_DOT>.4327E-4</MEAN_MOTION_DOT><MEAN_MOTION_DDOT>0</MEAN_MOTION_DDOT></tleParameters></data></segment></body></omm>
<omm id="CCSDS_OMM_VERS" version="2.0">
<header><CREATION_DATE/><ORIGINATOR/></header><body><segment><metadata><OBJECT_NAME>KUIPER-00040</OBJECT_NAME><OBJECT_ID>2025-134B</OBJECT_ID><CENTER_NAME>EARTH</CENTER_NAME><REF_FRAME>TEME</REF_FRAME><TIME_SYSTEM>UTC</TIME_SYSTEM><MEAN_ELEMENT_THEORY>SGP4</MEAN_ELEMENT_THEORY></metadata><data><meanElements><EPOCH>2025-12-29T17:23:08.889216</EPOCH><MEAN_MOTION>14.79913528</MEAN_MOTION><ECCENTRICITY>.0017293</ECCENTRICITY><INCLINATION>51.8987</INCLINATION><RA_OF_ASC_NODE>193.6232</RA_OF_ASC_NODE><ARG_OF_PERICENTER>38.6978</ARG_OF_PERICENTER><MEAN_ANOMALY>321.5220</MEAN_ANOMALY></meanElements><tleParameters><EPHEMERIS_TYPE>0</EPHEMERIS_TYPE><CLASSIFICATION_TYPE>U</CLASSIFICATION_TYPE><NORAD_CAT_ID>64501</NORAD_CAT_ID><ELEMENT_SET_NO>999</ELEMENT_SET_NO><REV_AT_EPOCH>2955</REV_AT_EPOCH><BSTAR>-.17655E-3</BSTAR><MEAN_MOTION_DOT>-.1575E-4</MEAN_MOTION_DOT><MEAN_MOTION_DDOT>0</MEAN_MOTION_DDOT></tleParameters></data></segment></body></omm>
<omm id="CCSDS_OMM_VERS" version="2.0">
<header><CREATION_DATE/><ORIGINATOR/></header><body><segment><metadata><OBJECT_NAME>KUIPER-00041</OBJECT_NAME><OBJECT_ID>2025-134C</OBJECT_ID><CENTER_NAME>EARTH</CENTER_NAME><REF_FRAME>TEME</REF_FRAME><TIME_SYSTEM>UTC</TIME_SYSTEM><MEAN_ELEMENT_THEORY>SGP4</MEAN_ELEMENT_THEORY></metadata><data><meanElements><EPOCH>2025-12-29T18:58:54.137568</EPOCH><MEAN_MOTION>14.79933951</MEAN_MOTION><ECCENTRICITY>.0012655</ECCENTRICITY><INCLINATION>51.8964</INCLINATION><RA_OF_ASC_NODE>194.6814</RA_OF_ASC_NODE><ARG_OF_PERICENTER>39.8245</ARG_OF_PERICENTER><MEAN_ANOMALY>320.3644</MEAN_ANOMALY></meanElements><tleParameters><EPHEMERIS_TYPE>0</EPHEMERIS_TYPE><CLASSIFICATION_TYPE>U</CLASSIFICATION_TYPE><NORAD_CAT_ID>64502</NORAD_CAT_ID><ELEMENT_SET_NO>999</ELEMENT_SET_NO><REV_AT_EPOCH>2954</REV_AT_EPOCH><BSTAR>.25159E-3</BSTAR><MEAN_MOTION_DOT>.1696E-4</MEAN_MOTION_DOT><MEAN_MOTION_DDOT>0</MEAN_MOTION_DDOT></tleParameters></data></segment></body></omm>
<omm id="CCSDS_OMM_VERS" version="2.0">
<header><CREATION_DATE/><ORIGINATOR/></header><body><segment><metadata><OBJECT_NAME>KUIPER-00042</OBJECT_NAME><OBJECT_ID>2025-134D</OBJECT_ID><CENTER_NAME>EARTH</CENTER_NAME><REF_FRAME>TEME</REF_FRAME><TIME_SYSTEM>UTC</TIME_SYSTEM><MEAN_ELEMENT_THEORY>SGP4</MEAN_ELEMENT_THEORY></metadata><data><meanElements><EPOCH>2025-12-29T19:04:22.022112</EPOCH><MEAN_MOTION>14.79892114</MEAN_MOTION><ECCENTRICITY>.0012994</ECCENTRICITY><INCLINATION>51.8988</INCLINATION><RA_OF_ASC_NODE>190.6708</RA_OF_ASC_NODE><ARG_OF_PERICENTER>49.7820</ARG_OF_PERICENTER><MEAN_ANOMALY>310.4277</MEAN_ANOMALY></meanElements><tleParameters><EPHEMERIS_TYPE>0</EPHEMERIS_TYPE><CLASSIFICATION_TYPE>U</CLASSIFICATION_TYPE><NORAD_CAT_ID>64503</NORAD_CAT_ID><ELEMENT_SET_NO>999</ELEMENT_SET_NO><REV_AT_EPOCH>2960</REV_AT_EPOCH><BSTAR>.36115E-3</BSTAR><MEAN_MOTION_DOT>.2531E-4</MEAN_MOTION_DOT><MEAN_MOTION_DDOT>0</MEAN_MOTION_DDOT></tleParameters></data></segment></body></omm>
<omm id="CCSDS_OMM_VERS" version="2.0">
<header><CREATION_DATE/><ORIGINATOR/></header><body><segment><metadata><OBJECT_NAME>KUIPER-00043</OBJECT_NAME><OBJECT_ID>2025-134E</OBJECT_ID><CENTER_NAME>EARTH</CENTER_NAME><REF_FRAME>TEME</REF_FRAME><TIME_SYSTEM>UTC</TIME_SYSTEM><MEAN_ELEMENT_THEORY>SGP4</MEAN_ELEMENT_THEORY></metadata><data><meanElements><EPOCH>2025-12-29T19:15:53.039808</EPOCH><MEAN_MOTION>14.79935824</MEAN_MOTION><ECCENTRICITY>.0003755</ECCENTRICITY><INCLINATION>51.9016</INCLINATION><RA_OF_ASC_NODE>183.0837</RA_OF_ASC_NODE><ARG_OF_PERICENTER>72.9848</ARG_OF_PERICENTER><MEAN_ANOMALY>287.1526</MEAN_ANOMALY></meanElements><tleParameters><EPHEMERIS_TYPE>0</EPHEMERIS_TYPE><CLASSIFICATION_TYPE>U</CLASSIFICATION_TYPE><NORAD_CAT_ID>64504</NORAD_CAT_ID><ELEMENT_SET_NO>999</ELEMENT_SET_NO><REV_AT_EPOCH>2971</REV_AT_EPOCH><BSTAR>-.53433E-3</BSTAR><MEAN_MOTION_DOT>-.4294E-4</MEAN_MOTION_DOT><MEAN_MOTION_DDOT>0</MEAN_MOTION_DDOT></tleParameters></data></segment></body></omm>
<omm id="CCSDS_OMM_VERS" version="2.0">
<header><CREATION_DATE/><ORIGINATOR/></header><body><segment><metadata><OBJECT_NAME>KUIPER-00044</OBJECT_NAME><OBJECT_ID>2025-134F</OBJECT_ID><CENTER_NAME>EARTH</CENTER_NAME><REF_FRAME>TEME</REF_FRAME><TIME_SYSTEM>UTC</TIME_SYSTEM><MEAN_ELEMENT_THEORY>SGP4</MEAN_ELEMENT_THEORY></metadata><data><meanElements><EPOCH>2025-12-29T17:19:15.483072</EPOCH><MEAN_MOTION>14.79933948</MEAN_MOTION><ECCENTRICITY>.0012118</ECCENTRICITY><INCLINATION>51.8988</INCLINATION><RA_OF_ASC_NODE>195.9925</RA_OF_ASC_NODE><ARG_OF_PERICENTER>43.4894</ARG_OF_PERICENTER><MEAN_ANOMALY>316.7022</MEAN_ANOMALY></meanElements><tleParameters><EPHEMERIS_TYPE>0</EPHEMERIS_TYPE><CLASSIFICATION_TYPE>U</CLASSIFICATION_TYPE><NORAD_CAT_ID>64505</NORAD_CAT_ID><ELEMENT_SET_NO>999</ELEMENT_SET_NO><REV_AT_EPOCH>2952</REV_AT_EPOCH><BSTAR>.66084E-4</BSTAR><MEAN_MOTION_DOT>.28E-5</MEAN_MOTION_DOT><MEAN_MOTION_DDOT>0</MEAN_MOTION_DDOT></tleParameters></data></segment></body></omm>
<omm id="CCSDS_OMM_VERS" version="2.0">
<header><CREATION_DATE/><ORIGINATOR/></header><body><segment><metadata><OBJECT_NAME>KUIPER-00046</OBJECT_NAME><OBJECT_ID>2025-134G</OBJECT_ID><CENTER_NAME>EARTH</CENTER_NAME><REF_FRAME>TEME</REF_FRAME><TIME_SYSTEM>UTC</TIME_SYSTEM><MEAN_ELEMENT_THEORY>SGP4</MEAN_ELEMENT_THEORY></metadata><data><meanElements><EPOCH>2025-12-29T17:00:37.188000</EPOCH><MEAN_MOTION>14.80741667</MEAN_MOTION><ECCENTRICITY>.0013083</ECCENTRICITY><INCLINATION>51.8978</INCLINATION><RA_OF_ASC_NODE>192.3372</RA_OF_ASC_NODE><ARG_OF_PERICENTER>53.0248</ARG_OF_PERICENTER><MEAN_ANOMALY>307.1910</MEAN_ANOMALY></meanElements><tleParameters><EPHEMERIS_TYPE>0</EPHEMERIS_TYPE><CLASSIFICATION_TYPE>U</CLASSIFICATION_TYPE><NORAD_CAT_ID>64506</NORAD_CAT_ID><ELEMENT_SET_NO>999</ELEMENT_SET_NO><REV_AT_EPOCH>2957</REV_AT_EPOCH><BSTAR>.6209E-3</BSTAR><MEAN_MOTION_DOT>.4609E-4</MEAN_MOTION_DOT><MEAN_MOTION_DDOT>0</MEAN_MOTION_DDOT></tleParameters></data></segment></body></omm>
<omm id="CCSDS_OMM_VERS" version="2.0">
<header><CREATION_DATE/><ORIGINATOR/></header><body><segment><metadata><OBJECT_NAME>KUIPER-00047</OBJECT_NAME><OBJECT_ID>2025-134H</OBJECT_ID><CENTER_NAME>EARTH</CENTER_NAME><REF_FRAME>TEME</REF_FRAME><TIME_SYSTEM>UTC</TIME_SYSTEM><MEAN_ELEMENT_THEORY>SGP4</MEAN_ELEMENT_THEORY></metadata><data><meanElements><EPOCH>2025-12-29T20:00:01.999008</EPOCH><MEAN_MOTION>14.78828433</MEAN_MOTION><ECCENTRICITY>.0000635</ECCENTRICITY><INCLINATION>51.8972</INCLINATION><RA_OF_ASC_NODE>163.3123</RA_OF_ASC_NODE><ARG_OF_PERICENTER>318.3687</ARG_OF_PERICENTER><MEAN_ANOMALY>157.4145</MEAN_ANOMALY></meanElements><tleParameters><EPHEMERIS_TYPE>0</EPHEMERIS_TYPE><CLASSIFICATION_TYPE>U</CLASSIFICATION_TYPE><NORAD_CAT_ID>64507</NORAD_CAT_ID><ELEMENT_SET_NO>999</ELEMENT_SET_NO><REV_AT_EPOCH>473</REV_AT_EPOCH><BSTAR>.36263E-2</BSTAR><MEAN_MOTION_DOT>.26817E-3</MEAN_MOTION_DOT><MEAN_MOTION_DDOT>0</MEAN_MOTION_DDOT></tleParameters></data></segment></body></omm>
<omm id="CCSDS_OMM_VERS" version="2.0">
<header><CREATION_DATE/><ORIGINATOR/></header><body><segment><metadata><OBJECT_NAME>KUIPER-00048</OBJECT_NAME><OBJECT_ID>2025-134J</OBJECT_ID><CENTER_NAME>EARTH</CENTER_NAME><REF_FRAME>TEME</REF_FRAME><TIME_SYSTEM>UTC</TIME_SYSTEM><MEAN_ELEMENT_THEORY>SGP4</MEAN_ELEMENT_THEORY></metadata><data><meanElements><EPOCH>2025-12-29T18:08:09.278016</EPOCH><MEAN_MOTION>14.79958039</MEAN_MOTION><ECCENTRICITY>.000254</ECCENTRICITY><INCLINATION>51.8977</INCLINATION><RA_OF_ASC_NODE>164.8306</RA_OF_ASC_NODE><ARG_OF_PERICENTER>187.8412</ARG_OF_PERICENTER><MEAN_ANOMALY>172.2511</MEAN_ANOMALY></meanElements><tleParameters><EPHEMERIS_TYPE>0</EPHEMERIS_TYPE><CLASSIFICATION_TYPE>U</CLASSIFICATION_TYPE><NORAD_CAT_ID>64508</NORAD_CAT_ID><ELEMENT_SET_NO>999</ELEMENT_SET_NO><REV_AT_EPOCH>2996</REV_AT_EPOCH><BSTAR>.68164E-3</BSTAR><MEAN_MOTION_DOT>.4982E-4</MEAN_MOTION_DOT><MEAN_MOTION_DDOT>0</MEAN_MOTION_DDOT></tleParameters></data></segment></body></omm>

</ndm>
